[
    {
        "Altitude(m)": 604221.2035329309,
        "Argument of Periapsis(deg)": 0.0,
        "Eccentricity": 0.0,
        "Inclination(deg)": 60.0,
        "Latitude(deg)": 14.117241324704835,
        "Longitude(deg)": -151.6658266269379,
        "Mean Anomaly(deg)": 16.363599999999984,
        "RAAN(deg)": 300.0,
        "Satellite Name": "Test1 1321",
        "Satellite Number": 1321,
        "Semi-Major Axis(m)": 6980739.136638005,
        "Time(s)": 0
    },
    {
        "Altitude(m)": 604235.3443464006,
        "Argument of Periapsis(deg)": 0.00010418945913296404,
        "Eccentricity": 0.0,
        "Inclination(deg)": 60.0,
        "Latitude(deg)": 14.651637692527036,
        "Longitude(deg)": -151.37737891527274,
        "Mean Anomaly(deg)": 16.983706145461838,
        "RAAN(deg)": 299.99957995086027,
        "Satellite Name": "Test1 1321",
        "Satellite Number": 1321,
        "Semi-Major Axis(m)": 6980739.136638005,
        "Time(s)": 10
    }
]